NORAD_CAT_ID,OBJECT_NAME,OBJECT_TYPE,EPOCH,MEAN_MOTION,ECCENTRICITY,INCLINATION,RA_OF_ASC_NODE,ARG_OF_PERICENTER,MEAN_ANOMALY,BSTAR,MEAN_MOTION_DOT,MEAN_MOTION_DDOT,TLE_LINE0,TLE_LINE1,TLE_LINE2,SEMIMAJOR_AXIS,PERIOD,APOGEE,PERIGEE,DECAYED
54801.0,STARLINK-5429,PAYLOAD,2024-01-03 06:35:46,15.08831672,0.0002218,53.2186,18.9303,105.1287,254.9951,-4.1107e-05,-9.42e-06,0.0,0 STARLINK-5429,1 54801U 22175AV  24003.27484295 -.00000942  00000-0 -41107-4 0  9999,2 54801  53.2186  18.9303 0002218 105.1287 254.9951 15.08831672 57532,6917.906,95.438,541.305,538.236,0.0
54801.0,STARLINK-5429,PAYLOAD,2024-01-04 04:51:09,15.08841492,0.0001941,53.2184,14.7629,97.5087,262.6125,0.00010472,1.379e-05,0.0,0 STARLINK-5429,1 54801U 22175AV  24004.20219454  .00001379  00000-0  10472-3 0  9999,2 54801  53.2184  14.7629 0001941  97.5087 262.6125 15.08841492 57674,6917.876,95.437,541.084,538.398,0.0
54801.0,STARLINK-5429,PAYLOAD,2024-01-04 06:26:32,15.08842147,0.0001977,53.2183,14.4655,98.7745,261.3471,0.00010904,1.448e-05,0.0,0 STARLINK-5429,1 54801U 22175AV  24004.26843399  .00001448  00000-0  10904-3 0  9993,2 54801  53.2183  14.4655 0001977  98.7745 261.3471 15.08842147 59841,6917.874,95.437,541.106,538.371,0.0
54801.0,STARLINK-5429,PAYLOAD,2024-01-05 04:41:56,15.08835511,0.0001998,53.2182,10.3025,95.3202,264.8018,0.00011804,1.591e-05,0.0,0 STARLINK-5429,1 54801U 22175AV  24005.19579846  .00001591  00000-0  11804-3 0  9998,2 54801  53.2182  10.3025 0001998  95.3202 264.8018 15.08835511 57828,6917.894,95.438,541.141,538.377,0.0
54801.0,STARLINK-5429,PAYLOAD,2024-01-05 09:28:06,15.08839903,0.0001992,53.2182,9.4107,83.8373,276.2846,0.00015404,2.164e-05,0.0,0 STARLINK-5429,1 54801U 22175AV  24005.39451687  .00002164  00000-0  15404-3 0  9999,2 54801  53.2182   9.4107 0001992  83.8373 276.2846 15.08839903 60013,6917.881,95.438,541.124,538.368,0.0
54801.0,STARLINK-5429,PAYLOAD,2024-01-06 06:08:06,15.08844159,0.0001962,53.2179,5.5442,95.8062,264.3154,6.1328e-05,6.88e-06,0.0,0 STARLINK-5429,1 54801U 22175AV  24006.25563611  .00000688  00000-0  61328-4 0  9992,2 54801  53.2179   5.5442 0001962  95.8062 264.3154 15.08844159 57984,6917.868,95.437,541.09,538.375,0.0
54801.0,STARLINK-5429,PAYLOAD,2024-01-07 09:09:40,15.08846997,0.0001961,53.2175,0.4889,99.3207,260.8007,8.88e-06,-1.47e-06,0.0,0 STARLINK-5429,1 54801U 22175AV  24007.38171567 -.00000147  00000-0  88800-5 0  9998,2 54801  53.2175   0.4889 0001961  99.3207 260.8007 15.08846997 58158,6917.859,95.437,541.081,538.367,0.0
54801.0,STARLINK-5429,PAYLOAD,2024-01-08 04:14:18,15.08821694,0.0002126,53.2177,356.9197,105.8437,254.279,0.00029864,4.466e-05,0.0,0 STARLINK-5429,1 54801U 22175AV  24008.17660455  .00004466  00000-0  29864-3 0  9995,2 54801  53.2177 356.9197 0002126 105.8437 254.2790 15.08821694 58279,6917.936,95.439,541.272,538.331,0.0
54801.0,STARLINK-5429,PAYLOAD,2024-01-08 09:00:27,15.08843803,0.0001968,53.2175,356.0277,98.2616,261.8599,7.2027e-05,8.58e-06,0.0,0 STARLINK-5429,1 54801U 22175AV  24008.37531607  .00000858  00000-0  72027-4 0  9994,2 54801  53.2175 356.0277 0001968  98.2616 261.8599 15.08843803 58305,6917.869,95.437,541.095,538.372,0.0
54801.0,STARLINK-5429,PAYLOAD,2024-01-09 04:05:06,15.0879203,0.0002249,53.218,352.457,97.5251,262.5997,0.00075051,0.00011661,0.0,0 STARLINK-5429,1 54801U 22175AV  24009.17021093  .00011661  00000-0  75051-3 0  9999,2 54801  53.2180 352.4570 0002249  97.5251 262.5997 15.08792030 58425,6918.027,95.441,541.448,538.336,0.0
54801.0,STARLINK-5429,PAYLOAD,2024-01-09 08:51:15,15.08800499,0.0002208,53.2182,351.5653,99.4921,260.632,0.00068279,0.00010584,0.0,0 STARLINK-5429,1 54801U 22175AV  24009.36893176  .00010584  00000-0  68279-3 0  9996,2 54801  53.2182 351.5653 0002208  99.4921 260.6320 15.08800499 60611,6918.001,95.44,541.394,538.339,0.0
54801.0,STARLINK-5429,PAYLOAD,2024-01-10 03:55:52,15.08841776,0.0001873,53.2182,348.0,97.2202,262.9003,1.282e-05,-8.4e-07,0.0,0 STARLINK-5429,1 54801U 22175AV  24010.16380182 -.00000084  00000-0  12820-4 0  9991,2 54801  53.2182 348.0000 0001873  97.2202 262.9003 15.08841776 58571,6917.875,95.437,541.036,538.444,0.0
54801.0,STARLINK-5429,PAYLOAD,2024-01-10 08:42:01,15.08843029,0.0001937,53.2183,347.1061,100.0766,260.0445,4.8237e-05,4.8e-06,0.0,0 STARLINK-5429,1 54801U 22175AV  24010.36251995  .00000480  00000-0  48237-4 0  9992,2 54801  53.2183 347.1061 0001937 100.0766 260.0445 15.08843029 60764,6917.871,95.437,541.076,538.396,0.0
54801.0,STARLINK-5429,PAYLOAD,2024-01-11 06:57:25,15.08843118,0.0002031,53.2196,342.9415,108.945,251.1763,9.0049e-05,1.145e-05,0.0,0 STARLINK-5429,1 54801U 22175AV  24011.28988101  .00001145  00000-0  90049-4 0  9997,2 54801  53.2196 342.9415 0002031 108.9450 251.1763 15.08843118 58745,6917.871,95.437,541.141,538.331,0.0
54801.0,STARLINK-5429,PAYLOAD,2024-01-11 21:15:54,15.08838222,0.0001991,53.2207,340.2705,100.2914,259.8303,0.00011755,1.583e-05,0.0,0 STARLINK-5429,1 54801U 22175AV  24011.88604522  .00001583  00000-0  11755-3 0  9997,2 54801  53.2207 340.2705 0001991 100.2914 259.8303 15.08838222 60990,6917.886,95.438,541.128,538.373,0.0
54801.0,STARLINK-5429,PAYLOAD,2024-01-12 03:37:26,15.0884119,0.0002026,53.2202,339.08,101.0065,259.1155,9.0005e-05,1.145e-05,0.0,0 STARLINK-5429,1 54801U 22175AV  24012.15100434  .00001145  00000-0  90005-4 0  9991,2 54801  53.2202 339.0800 0002026 101.0065 259.1155 15.08841190 58873,6917.877,95.437,541.143,538.34,0.0
54801.0,STARLINK-5429,PAYLOAD,2024-01-12 06:48:12,15.08848617,0.000186,53.218,338.4827,101.8422,258.2779,0.00013588,1.876e-05,0.0,0 STARLINK-5429,1 54801U 22175AV  24012.28347824  .00001876  00000-0  13588-3 0  9992,2 54801  53.2180 338.4827 0001860 101.8422 258.2779 15.08848617 58895,6917.854,95.437,541.006,538.432,0.0
54801.0,STARLINK-5429,PAYLOAD,2024-01-13 03:28:14,15.08841214,0.0002008,53.2195,334.6151,97.9897,262.1323,2.0556e-06,-2.56e-06,0.0,0 STARLINK-5429,1 54801U 22175AV  24013.14460918 -.00000256  00000-0  20556-5 0  9995,2 54801  53.2195 334.6151 0002008  97.9897 262.1323 15.08841214 59026,6917.877,95.437,541.131,538.353,0.0
54801.0,STARLINK-5429,PAYLOAD,2024-01-14 06:29:47,15.08847142,0.000217,53.2193,329.5614,100.7204,259.4032,0.00015609,2.197e-05,0.0,0 STARLINK-5429,1 54801U 22175AV  24014.27068601  .00002197  00000-0  15609-3 0  9999,2 54801  53.2193 329.5614 0002170 100.7204 259.4032 15.08847142 59196,6917.859,95.437,541.225,538.222,0.0
54801.0,STARLINK-5429,PAYLOAD,2024-01-15 03:09:47,15.0885479,0.000209,53.2193,325.698,99.3026,260.8203,0.00019867,2.876e-05,0.0,0 STARLINK-5429,1 54801U 22175AV  24015.13179991  .00002876  00000-0  19867-3 0  9994,2 54801  53.2193 325.6980 0002090  99.3026 260.8203 15.08854790 61483,6917.835,95.437,541.146,538.254,0.0
54801.0,STARLINK-5429,PAYLOAD,2024-01-16 01:25:12,15.08834496,0.0002074,53.2191,321.5302,72.4783,287.6436,-5.1122e-05,-1.102e-05,0.0,0 STARLINK-5429,1 54801U 22175AV  24016.05917420 -.00001102  00000-0 -51122-4 0  9997,2 54801  53.2191 321.5302 0002074  72.4783 287.6436 15.08834496 59469,6917.897,95.438,541.197,538.327,0.0
54801.0,STARLINK-5429,PAYLOAD,2024-01-16 06:11:21,15.08835509,0.0001785,53.2179,320.6414,100.1017,260.0176,-3.7843e-05,-8.9e-06,0.0,0 STARLINK-5429,1 54801U 22175AV  24016.25789211 -.00000890  00000-0 -37843-4 0  9991,2 54801  53.2179 320.6414 0001785 100.1017 260.0176 15.08835509 61652,6917.894,95.438,540.994,538.524,0.0
54801.0,STARLINK-5429,PAYLOAD,2024-01-17 02:51:24,15.08825072,0.0001645,53.2187,316.7737,98.5993,261.5185,-0.00019881,-3.449e-05,0.0,0 STARLINK-5429,1 54801U 22175AV  24017.11903318 -.00003449  00000-0 -19881-3 0  9997,2 54801  53.2187 316.7737 0001645  98.5993 261.5185 15.08825072 59627,6917.926,95.438,540.929,538.653,0.0
54801.0,STARLINK-5429,PAYLOAD,2024-01-18 02:42:08,15.08857935,0.0001689,53.2189,312.3133,92.6398,267.4788,0.00034714,5.244e-05,0.0,0 STARLINK-5429,1 54801U 22175AV  24018.11260104  .00005244  00000-0  34714-3 0  9992,2 54801  53.2189 312.3133 0001689  92.6398 267.4788 15.08857935 59776,6917.826,95.436,540.859,538.522,0.0
54801.0,STARLINK-5429,PAYLOAD,2024-01-19 02:32:57,15.08840178,0.0001768,53.2182,307.8545,73.3533,286.7653,0.000207,3.008e-05,0.0,0 STARLINK-5429,1 54801U 22175AV  24019.10621879  .00003008  00000-0  20700-3 0  9998,2 54801  53.2182 307.8545 0001768  73.3533 286.7653 15.08840178 59923,6917.88,95.438,540.968,538.522,0.0
54801.0,STARLINK-5429,PAYLOAD,2024-01-19 04:08:20,15.08844334,0.0001685,53.2185,307.5581,95.3813,264.7372,0.00024544,3.621e-05,0.0,0 STARLINK-5429,1 54801U 22175AV  24019.17245415  .00003621  00000-0  24544-3 0  9994,2 54801  53.2185 307.5581 0001685  95.3813 264.7372 15.08844334 62090,6917.867,95.437,540.898,538.566,0.0
54801.0,STARLINK-5429,PAYLOAD,2024-01-19 23:12:57,15.08856093,0.0001873,53.2192,303.9854,101.9545,258.1658,-0.00016058,-2.844e-05,0.0,0 STARLINK-5429,1 54801U 22175AV  24019.96733401 -.00002844  00000-0 -16058-3 0  9997,2 54801  53.2192 303.9854 0001873 101.9545 258.1658 15.08856093 62219,6917.831,95.437,540.992,538.4,0.0
54801.0,STARLINK-5429,PAYLOAD,2024-01-20 02:23:43,15.0885672,0.0001589,53.2185,303.3953,93.3324,266.785,-0.00012898,-2.341e-05,0.0,0 STARLINK-5429,1 54801U 22175AV  24020.09981053 -.00002341  00000-0 -12898-3 0  9991,2 54801  53.2185 303.3953 0001589  93.3324 266.7850 15.08856720 62236,6917.829,95.436,540.794,538.595,0.0
54801.0,STARLINK-5429,PAYLOAD,2024-01-20 18:17:35,15.08838124,0.0001642,53.2192,300.4224,104.6351,255.4824,-8.501e-05,-1.641e-05,0.0,0 STARLINK-5429,1 54801U 22175AV  24020.76222148 -.00001641  00000-0 -85010-4 0  9997,2 54801  53.2192 300.4224 0001642 104.6351 255.4824 15.08838124 60174,6917.886,95.438,540.887,538.615,0.0
54801.0,STARLINK-5429,PAYLOAD,2024-01-20 23:03:45,15.08839018,0.0001667,53.2187,299.5349,85.5442,274.574,-7.1954e-05,-1.433e-05,0.0,0 STARLINK-5429,1 54801U 22175AV  24020.96094232 -.00001433  00000-0 -71954-4 0  9991,2 54801  53.2187 299.5349 0001667  85.5442 274.5740 15.08839018 62364,6917.883,95.438,540.902,538.595,0.0
